0 SL-24 DEB
1 28374U 04025J   13280.74418373  .00000260  00000-0  63422-4 0  4709
2 28374 097.9346 316.0281 0020920 184.4892 311.3824 14.59839596493911
0 SL-24 DEB
1 28374U 04025J   13283.19347206  .00000350  00000-0  82323-4 0  4719
2 28374 097.9345 318.3721 0021078 177.0794 223.1546 14.59843185494278
0 SL-24 DEB
1 28374U 04025J   13285.54022681  .00000316  00000-0  75226-4 0  4724
2 28374 097.9341 320.6180 0021230 170.0536 316.0304 14.59844749494615
0 SL-24 DEB
1 28374U 04025J   13287.73554963  .00000478  00000-0  10891-3 0  4736
2 28374 097.9336 322.7190 0021330 163.4929 333.0900 14.59847215494933
0 SL-24 DEB
1 28374U 04025J   13290.11347642  .00000460  00000-0  10512-3 0  4748
2 28374 097.9332 324.9944 0021431 156.4475 229.7517 14.59850500495285
0 SL-24 DEB
1 28374U 04025J   13292.17251030  .00000473  00000-0  10786-3 0  4759
2 28374 097.9330 326.9644 0021517 150.3695 250.5409 14.59852148495589
0 SL-24 DEB
1 28374U 04025J   13294.72690491  .00000561  00000-0  12623-3 0  4761
2 28374 097.9332 329.4082 0021608 142.8076 354.6307 14.59855314495957
